{"type": "FeatureCollection", "features": [ {"type": "Feature", "properties": {"norad_id": 57401, "name": "TIANMU-1 09", "group": "weather", "lat": -45.104998248121866, "lon": 34.89219017523159, "alt_km": 493.0494503432583, "timestamp": "2025-12-04T03:47:54.197840+00:00", "meta": {"OBJECT_NAME": "TIANMU-1 09", "OBJECT_ID": "2023-101C", "EPOCH": "2025-12-03T20:08:18.839616", "MEAN_MOTION": 15.27872147, "ECCENTRICITY": 0.0006743, "INCLINATION": 97.2839, "RA_OF_ASC_NODE": 27.2045, "ARG_OF_PERICENTER": 108.0827, "MEAN_ANOMALY": 252.1148, "EPHEMERIS_TYPE": 0, "CLASSIFICATION_TYPE": "U", "NORAD_CAT_ID": 57401, "ELEMENT_SET_NO": 999, "REV_AT_EPOCH": 13179, "BSTAR": 0.00046719, "MEAN_MOTION_DOT": 0.00012656, "MEAN_MOTION_DDOT": 0}, "tle": {"line1": "1 57401U 23101C   25337.83910694  .00012656  00000+0  46719-3 0  9993", "line2": "2 57401  97.2839  27.2045 0006743 108.0827 252.1148 15.27872147131791"}}, "geometry": {"type": "Point", "coordinates": [34.89219017523159, -45.104998248121866]}}, {"type": "Feature", "properties": {"norad_id": 57402, "name": "TIANMU-1 10", "group": "weather", "lat": 52.52526109482371, "lon": -142.02754865643686, "alt_km": 471.79358969064197, "timestamp": "2025-12-04T03:47:54.197850+00:00", "meta": {"OBJECT_NAME": "TIANMU-1 10", "OBJECT_ID": "2023-101D", "EPOCH": "2025-12-03T19:23:12.161760", "MEAN_MOTION": 15.27862563, "ECCENTRICITY": 0.0008516, "INCLINATION": 97.292, "RA_OF_ASC_NODE": 28.0143, "ARG_OF_PERICENTER": 109.2458, "MEAN_ANOMALY": 250.9703, "EPHEMERIS_TYPE": 0, "CLASSIFICATION_TYPE": "U", "NORAD_CAT_ID": 57402, "ELEMENT_SET_NO": 999, "REV_AT_EPOCH": 13178, "BSTAR": 0.0004458, "MEAN_MOTION_DOT": 0.00012074, "MEAN_MOTION_DDOT": 0}, "tle": {"line1": "1 57402U 23101D   25337.80777965  .00012074  00000+0  44580-3 0  9991", "line2": "2 57402  97.2920  28.0143 0008516 109.2458 250.9703 15.27862563131787"}}, "geometry": {"type": "Point", "coordinates": [-142.02754865643686, 52.52526109482371]}}, {"type": "Feature", "properties": {"norad_id": 57490, "name": "FENGYUN 3F", "group": "weather", "lat": 58.98107281559774, "lon": -118.64111864461825, "alt_km": 819.5746551836055, "timestamp": "2025-12-04T03:47:54.197860+00:00", "meta": {"OBJECT_NAME": "FENGYUN 3F", "OBJECT_ID": "2023-111A", "EPOCH": "2025-12-03T20:28:16.095648", "MEAN_MOTION": 14.19889715, "ECCENTRICITY": 6.87e-05, "INCLINATION": 98.7095, "RA_OF_ASC_NODE": 46.2894, "ARG_OF_PERICENTER": 87.1082, "MEAN_ANOMALY": 273.0173, "EPHEMERIS_TYPE": 0, "CLASSIFICATION_TYPE": "U", "NORAD_CAT_ID": 57490, "ELEMENT_SET_NO": 999, "REV_AT_EPOCH": 12114, "BSTAR": 9.4975e-05, "MEAN_MOTION_DOT": 1.58e-06, "MEAN_MOTION_DDOT": 0}, "tle": {"line1": "1 57490U 23111A   25337.85296407  .00000158  00000+0  94975-4 0  9995", "line2": "2 57490  98.7095  46.2894 0000687  87.1082 273.0173 14.19889715121140"}}, "geometry": {"type": "Point", "coordinates": [-118.64111864461825, 58.98107281559774]}}, {"type": "Feature", "properties": {"norad_id": 58584, "name": "ARKTIKA-M 2", "group": "weather", "lat": 60.18851124694643, "lon": -66.02335070991347, "alt_km": 35123.63722935471, "timestamp": "2025-12-04T03:47:54.197872+00:00", "meta": {"OBJECT_NAME": "ARKTIKA-M 2", "OBJECT_ID": "2023-198A", "EPOCH": "2025-12-03T08:34:19.284960", "MEAN_MOTION": 2.00605176, "ECCENTRICITY": 0.6864251, "INCLINATION": 63.2223, "RA_OF_ASC_NODE": 175.9121, "ARG_OF_PERICENTER": 268.1397, "MEAN_ANOMALY": 18.842, "EPHEMERIS_TYPE": 0, "CLASSIFICATION_TYPE": "U", "NORAD_CAT_ID": 58584, "ELEMENT_SET_NO": 999, "REV_AT_EPOCH": 1439, "BSTAR": 0, "MEAN_MOTION_DOT": 2.24e-06, "MEAN_MOTION_DDOT": 0}, "tle": {"line1": "1 58584U 23198A   25337.35716765  .00000224  00000+0  00000+0 0  9999", "line2": "2 58584  63.2223 175.9121 6864251 268.1397  18.8420  2.00605176 14391"}}, "geometry": {"type": "Point", "coordinates": [-66.02335070991347, 60.18851124694643]}}, {"type": "Feature", "properties": {"norad_id": 58645, "name": "TIANMU-1 11", "group": "weather", "lat": 51.91983186961639, "lon": -11.562580587601753, "alt_km": 485.48359637338126, "timestamp": "2025-12-04T03:47:54.197884+00:00", "meta": {"OBJECT_NAME": "TIANMU-1 11", "OBJECT_ID": "2023-205A", "EPOCH": "2025-12-03T19:41:31.833312", "MEAN_MOTION": 15.24424027, "ECCENTRICITY": 0.0008807, "INCLINATION": 97.3609, "RA_OF_ASC_NODE": 357.6021, "ARG_OF_PERICENTER": 345.4678, "MEAN_ANOMALY": 14.6305, "EPHEMERIS_TYPE": 0, "CLASSIFICATION_TYPE": "U", "NORAD_CAT_ID": 58645, "ELEMENT_SET_NO": 999, "REV_AT_EPOCH": 10773, "BSTAR": 0.00037586, "MEAN_MOTION_DOT": 9.161e-05, "MEAN_MOTION_DDOT": 0}, "tle": {"line1": "1 58645U 23205A   25337.82050733  .00009161  00000+0  37586-3 0  9996", "line2": "2 58645  97.3609 357.6021 0008807 345.4678  14.6305 15.24424027107736"}}, "geometry": {"type": "Point", "coordinates": [-11.562580587601753, 51.91983186961639]}}, {"type": "Feature", "properties": {"norad_id": 58646, "name": "TIANMU-1 12", "group": "weather", "lat": -82.33469104626704, "lon": 103.93017680550199, "alt_km": 497.99343470366875, "timestamp": "2025-12-04T03:47:54.197897+00:00", "meta": {"OBJECT_NAME": "TIANMU-1 12", "OBJECT_ID": "2023-205B", "EPOCH": "2025-12-03T20:19:27.780384", "MEAN_MOTION": 15.24339051, "ECCENTRICITY": 0.0006622, "INCLINATION": 97.3597, "RA_OF_ASC_NODE": 357.4363, "ARG_OF_PERICENTER": 331.0789, "MEAN_ANOMALY": 29.0081, "EPHEMERIS_TYPE": 0, "CLASSIFICATION_TYPE": "U", "NORAD_CAT_ID": 58646, "ELEMENT_SET_NO": 999, "REV_AT_EPOCH": 10772, "BSTAR": 0.00040416, "MEAN_MOTION_DOT": 9.828e-05, "MEAN_MOTION_DDOT": 0}, "tle": {"line1": "1 58646U 23205B   25337.84684931  .00009828  00000+0  40416-3 0  9998", "line2": "2 58646  97.3597 357.4363 0006622 331.0789  29.0081 15.24339051107729"}}, "geometry": {"type": "Point", "coordinates": [103.93017680550199, -82.33469104626704]}}, {"type": "Feature", "properties": {"norad_id": 58647, "name": "TIANMU-1 13", "group": "weather", "lat": 79.93652678993604, "lon": -48.82873488265393, "alt_km": 488.55103361766123, "timestamp": "2025-12-04T03:47:54.197916+00:00", "meta": {"OBJECT_NAME": "TIANMU-1 13", "OBJECT_ID": "2023-205C", "EPOCH": "2025-12-03T19:33:28.014048", "MEAN_MOTION": 15.24344574, "ECCENTRICITY": 0.0006369, "INCLINATION": 97.3625, "RA_OF_ASC_NODE": 357.6022, "ARG_OF_PERICENTER": 307.5682, "MEAN_ANOMALY": 52.4977, "EPHEMERIS_TYPE": 0, "CLASSIFICATION_TYPE": "U", "NORAD_CAT_ID": 58647, "ELEMENT_SET_NO": 999, "REV_AT_EPOCH": 10771, "BSTAR": 0.00042181, "MEAN_MOTION_DOT": 0.00010262, "MEAN_MOTION_DDOT": 0}, "tle": {"line1": "1 58647U 23205C   25337.81490757  .00010262  00000+0  42181-3 0  9992", "line2": "2 58647  97.3625 357.6022 0006369 307.5682  52.4977 15.24344574107713"}}, "geometry": {"type": "Point", "coordinates": [-48.82873488265393, 79.93652678993604]}}, {"type": "Feature", "properties": {"norad_id": 58648, "name": "TIANMU-1 14", "group": "weather", "lat": 5.258233446107802, "lon": 177.9772524586205, "alt_km": 498.75713981442095, "timestamp": "2025-12-04T03:47:54.197927+00:00", "meta": {"OBJECT_NAME": "TIANMU-1 14", "OBJECT_ID": "2023-205D", "EPOCH": "2025-12-03T20:43:57.102240", "MEAN_MOTION": 15.24331044, "ECCENTRICITY": 0.0007268, "INCLINATION": 97.3557, "RA_OF_ASC_NODE": 357.0071, "ARG_OF_PERICENTER": 311.6838, "MEAN_ANOMALY": 48.3777, "EPHEMERIS_TYPE": 0, "CLASSIFICATION_TYPE": "U", "NORAD_CAT_ID": 58648, "ELEMENT_SET_NO": 999, "REV_AT_EPOCH": 10772, "BSTAR": 0.00042923, "MEAN_MOTION_DOT": 0.00010441, "MEAN_MOTION_DDOT": 0}, "tle": {"line1": "1 58648U 23205D   25337.86385535  .00010441  00000+0  42923-3 0  9998", "line2": "2 58648  97.3557 357.0071 0007268 311.6838  48.3777 15.24331044107725"}}, "geometry": {"type": "Point", "coordinates": [177.9772524586205, 5.258233446107802]}}, {"type": "Feature", "properties": {"norad_id": 58660, "name": "TIANMU-1 19", "group": "weather", "lat": -32.18244137191817, "lon": 93.93089456906844, "alt_km": 486.9010319292456, "timestamp": "2025-12-04T03:47:54.197940+00:00", "meta": {"OBJECT_NAME": "TIANMU-1 19", "OBJECT_ID": "2023-208A", "EPOCH": "2025-12-03T20:04:46.973856", "MEAN_MOTION": 15.27588942, "ECCENTRICITY": 0.0004077, "INCLINATION": 97.4394, "RA_OF_ASC_NODE": 88.8933, "ARG_OF_PERICENTER": 292.931, "MEAN_ANOMALY": 67.1499, "EPHEMERIS_TYPE": 0, "CLASSIFICATION_TYPE": "U", "NORAD_CAT_ID": 58660, "ELEMENT_SET_NO": 999, "REV_AT_EPOCH": 10746, "BSTAR": 0.00054043, "MEAN_MOTION_DOT": 0.00014521, "MEAN_MOTION_DDOT": 0}, "tle": {"line1": "1 58660U 23208A   25337.83665479  .00014521  00000+0  54043-3 0  9999", "line2": "2 58660  97.4394  88.8933 0004077 292.9310  67.1499 15.27588942107461"}}, "geometry": {"type": "Point", "coordinates": [93.93089456906844, -32.18244137191817]}}, {"type": "Feature", "properties": {"norad_id": 58661, "name": "TIANMU-1 20", "group": "weather", "lat": 4.986785350666098, "lon": 89.00067098129259, "alt_km": 479.8530301001292, "timestamp": "2025-12-04T03:47:54.197950+00:00", "meta": {"OBJECT_NAME": "TIANMU-1 20", "OBJECT_ID": "2023-208B", "EPOCH": "2025-12-03T19:55:19.357824", "MEAN_MOTION": 15.28780512, "ECCENTRICITY": 0.0006447, "INCLINATION": 97.4331, "RA_OF_ASC_NODE": 89.3257, "ARG_OF_PERICENTER": 303.2203, "MEAN_ANOMALY": 56.8418, "EPHEMERIS_TYPE": 0, "CLASSIFICATION_TYPE": "U", "NORAD_CAT_ID": 58661, "ELEMENT_SET_NO": 999, "REV_AT_EPOCH": 10753, "BSTAR": 0.00049899, "MEAN_MOTION_DOT": 0.00013902, "MEAN_MOTION_DDOT": 0}, "tle": {"line1": "1 58661U 23208B   25337.83008516  .00013902  00000+0  49899-3 0  9998", "line2": "2 58661  97.4331  89.3257 0006447 303.2203  56.8418 15.28780512107530"}}, "geometry": {"type": "Point", "coordinates": [89.00067098129259, 4.986785350666098]}}]}